LYNK TOWER 5            
1 59121U 24043Z   26068.92489786  .00009048  00000+0  31902-3 0  9994
2 59121  97.5458 204.7305 0010406 234.6422 125.3846 15.29454506111860
STARLINK-34208          
1 64740U 25144S   26068.53827562  .00023343  00000+0  79748-3 0  9999
2 64740  53.1575 179.2599 0001440 129.4289 230.6839 15.30211693 39728
